{
    "links": {
        "self": "http://www.neowsapp.com/rest/v1/neo/54048869?api_key=iIulBulltgU6a56xZRHN4H3l9WmuAYTsLGpBGhQ2"
    },
    "id": "54048869",
    "neo_reference_id": "54048869",
    "name": "(2020 OT)",
    "designation": "2020 OT",
    "nasa_jpl_url": "http://ssd.jpl.nasa.gov/sbdb.cgi?sstr=54048869",
    "absolute_magnitude_h": 22.866,
    "estimated_diameter": {
        "kilometers": {
            "estimated_diameter_min": 0.0710157988,
            "estimated_diameter_max": 0.1587961537
        },
        "meters": {
            "estimated_diameter_min": 71.0157988268,
            "estimated_diameter_max": 158.7961536532
        },
        "miles": {
            "estimated_diameter_min": 0.0441271579,
            "estimated_diameter_max": 0.0986713248
        },
        "feet": {
            "estimated_diameter_min": 232.9914734229,
            "estimated_diameter_max": 520.9847727514
        }
    },
    "is_potentially_hazardous_asteroid": false,
    "close_approach_data": [
        {
            "close_approach_date": "2012-07-23",
            "close_approach_date_full": "2012-Jul-23 13:58",
            "epoch_date_close_approach": 1343051880000,
            "relative_velocity": {
                "kilometers_per_second": "27.0197835254",
                "kilometers_per_hour": "97271.2206915131",
                "miles_per_hour": "60440.5537680127"
            },
            "miss_distance": {
                "astronomical": "0.4193871683",
                "lunar": "163.1416084687",
                "kilometers": "62739427.083011521",
                "miles": "38984472.2553841498"
            },
            "orbiting_body": "Earth"
        },
        {
            "close_approach_date": "2020-08-16",
            "close_approach_date_full": "2020-Aug-16 22:05",
            "epoch_date_close_approach": 1597615500000,
            "relative_velocity": {
                "kilometers_per_second": "14.9969143596",
                "kilometers_per_hour": "53988.8916943984",
                "miles_per_hour": "33546.5977308888"
            },
            "miss_distance": {
                "astronomical": "0.062244359",
                "lunar": "24.213055651",
                "kilometers": "9311623.52591533",
                "miles": "5785974.559798354"
            },
            "orbiting_body": "Earth"
        }
    ],
    "orbital_data": {
        "orbit_id": "21",
        "orbit_determination_date": "2020-10-26 09:35:26",
        "first_observation_date": "2020-07-18",
        "last_observation_date": "2020-08-19",
        "data_arc_in_days": 32,
        "observations_used": 115,
        "orbit_uncertainty": "7",
        "minimum_orbit_intersection": ".0619776",
        "jupiter_tisserand_invariant": "3.662",
        "epoch_osculation": "2459000.5",
        "eccentricity": ".5892787026403656",
        "semi_major_axis": "1.93425301234955",
        "inclination": "9.382297021671434",
        "ascending_node_longitude": "303.2115848789244",
        "orbital_period": "982.5809721701585",
        "perihelion_distance": ".794438906653988",
        "perihelion_argument": "88.34215605467733",
        "aphelion_distance": "3.074067118045112",
        "perihelion_time": "2459124.701451361621",
        "mean_anomaly": "314.4948215398165",
        "mean_motion": ".366382018577963",
        "equinox": "J2000",
        "orbit_class": {
            "orbit_class_type": "APO",
            "orbit_class_description": "Near-Earth asteroid orbits which cross the Earth’s orbit similar to that of 1862 Apollo",
            "orbit_class_range": "a (semi-major axis) > 1.0 AU; q (perihelion) < 1.017 AU"
        }
    },
    "is_sentry_object": false
}